[{"OBJECT_NAME":"SKYSAT-A","OBJECT_ID":"2013-066C","EPOCH":"2025-03-09T17:54:22.811040","MEAN_MOTION":15.09005615,"ECCENTRICITY":0.0024916,"INCLINATION":97.4483,"RA_OF_ASC_NODE":127.2048,"ARG_OF_PERICENTER":114.7192,"MEAN_ANOMALY":245.6634,"EPHEMERIS_TYPE":0,"CLASSIFICATION_TYPE":"U","NORAD_CAT_ID":39418,"ELEMENT_SET_NO":999,"REV_AT_EPOCH":61834,"BSTAR":0.00042494,"MEAN_MOTION_DOT":6.706e-5,"MEAN_MOTION_DDOT":0},{"OBJECT_NAME":"SKYSAT-B","OBJECT_ID":"2014-037D","EPOCH":"2025-03-09T18:50:52.266624","MEAN_MOTION":14.86042044,"ECCENTRICITY":0.0005767,"INCLINATION":98.3372,"RA_OF_ASC_NODE":358.6323,"ARG_OF_PERICENTER":359.3487,"MEAN_ANOMALY":0.7718,"EPHEMERIS_TYPE":0,"CLASSIFICATION_TYPE":"U","NORAD_CAT_ID":40072,"ELEMENT_SET_NO":999,"REV_AT_EPOCH":57694,"BSTAR":0.00033175,"MEAN_MOTION_DOT":2.843e-5,"MEAN_MOTION_DDOT":0},{"OBJECT_NAME":"SKYSAT-C1","OBJECT_ID":"2016-040C","EPOCH":"2025-03-09T16:39:31.428000","MEAN_MOTION":15.30228761,"ECCENTRICITY":0.0003497,"INCLINATION":97.021,"RA_OF_ASC_NODE":121.5224,"ARG_OF_PERICENTER":122.6087,"MEAN_ANOMALY":237.5493,"EPHEMERIS_TYPE":0,"CLASSIFICATION_TYPE":"U","NORAD_CAT_ID":41601,"ELEMENT_SET_NO":999,"REV_AT_EPOCH":48675,"BSTAR":0.00059389,"MEAN_MOTION_DOT":0.00017321,"MEAN_MOTION_DDOT":0},{"OBJECT_NAME":"SKYSAT-C4","OBJECT_ID":"2016-058B","EPOCH":"2025-03-09T16:48:23.078304","MEAN_MOTION":15.34499096,"ECCENTRICITY":0.0001827,"INCLINATION":96.9709,"RA_OF_ASC_NODE":108.5007,"ARG_OF_PERICENTER":87.8861,"MEAN_ANOMALY":272.2592,"EPHEMERIS_TYPE":0,"CLASSIFICATION_TYPE":"U","NORAD_CAT_ID":41771,"ELEMENT_SET_NO":999,"REV_AT_EPOCH":47394,"BSTAR":0.00062702,"MEAN_MOTION_DOT":0.00020913,"MEAN_MOTION_DDOT":0},{"OBJECT_NAME":"SKYSAT-C5","OBJECT_ID":"2016-058C","EPOCH":"2025-03-09T17:34:01.495200","MEAN_MOTION":15.36983241,"ECCENTRICITY":0.0005497,"INCLINATION":97.1157,"RA_OF_ASC_NODE":122.4226,"ARG_OF_PERICENTER":41.5149,"MEAN_ANOMALY":318.6512,"EPHEMERIS_TYPE":0,"CLASSIFICATION_TYPE":"U","NORAD_CAT_ID":41772,"ELEMENT_SET_NO":999,"REV_AT_EPOCH":47248,"BSTAR":0.00061638,"MEAN_MOTION_DOT":0.00022267,"MEAN_MOTION_DDOT":0},{"OBJECT_NAME":"SKYSAT-C2","OBJECT_ID":"2016-058D","EPOCH":"2025-03-09T16:11:16.871712","MEAN_MOTION":15.31281637,"ECCENTRICITY":0.0002237,"INCLINATION":96.9753,"RA_OF_ASC_NODE":105.9889,"ARG_OF_PERICENTER":108.166,"MEAN_ANOMALY":251.9826,"EPHEMERIS_TYPE":0,"CLASSIFICATION_TYPE":"U","NORAD_CAT_ID":41773,"ELEMENT_SET_NO":999,"REV_AT_EPOCH":47374,"BSTAR":0.00056859,"MEAN_MOTION_DOT":0.00017128,"MEAN_MOTION_DDOT":0},{"OBJECT_NAME":"SKYSAT-C3","OBJECT_ID":"2016-058E","EPOCH":"2025-03-09T16:00:32.282784","MEAN_MOTION":15.35955646,"ECCENTRICITY":0.000328,"INCLINATION":96.9688,"RA_OF_ASC_NODE":116.6482,"ARG_OF_PERICENTER":5.6792,"MEAN_ANOMALY":354.4489,"EPHEMERIS_TYPE":0,"CLASSIFICATION_TYPE":"U","NORAD_CAT_ID":41774,"ELEMENT_SET_NO":999,"REV_AT_EPOCH":47448,"BSTAR":0.00060209,"MEAN_MOTION_DOT":0.00021035,"MEAN_MOTION_DDOT":0},{"OBJECT_NAME":"SKYSAT-C11","OBJECT_ID":"2017-068A","EPOCH":"2025-03-09T22:21:41.027904","MEAN_MOTION":15.37041341,"ECCENTRICITY":0.0007074,"INCLINATION":97.3779,"RA_OF_ASC_NODE":202.8343,"ARG_OF_PERICENTER":105.3115,"MEAN_ANOMALY":254.8912,"EPHEMERIS_TYPE":0,"CLASSIFICATION_TYPE":"U","NORAD_CAT_ID":42987,"ELEMENT_SET_NO":999,"REV_AT_EPOCH":41152,"BSTAR":0.00071119,"MEAN_MOTION_DOT":0.00025768,"MEAN_MOTION_DDOT":0},{"OBJECT_NAME":"SKYSAT-C10","OBJECT_ID":"2017-068B","EPOCH":"2025-03-09T22:21:09.555840","MEAN_MOTION":15.32777148,"ECCENTRICITY":0.0006417,"INCLINATION":97.3892,"RA_OF_ASC_NODE":199.867,"ARG_OF_PERICENTER":10.7191,"MEAN_ANOMALY":349.4187,"EPHEMERIS_TYPE":0,"CLASSIFICATION_TYPE":"U","NORAD_CAT_ID":42988,"ELEMENT_SET_NO":999,"REV_AT_EPOCH":41127,"BSTAR":0.0006847,"MEAN_MOTION_DOT":0.00021645,"MEAN_MOTION_DDOT":0},{"OBJECT_NAME":"SKYSAT-C9","OBJECT_ID":"2017-068C","EPOCH":"2025-03-09T20:16:15.316608","MEAN_MOTION":15.34469953,"ECCENTRICITY":0.0005494,"INCLINATION":97.3766,"RA_OF_ASC_NODE":198.1898,"ARG_OF_PERICENTER":42.8857,"MEAN_ANOMALY":317.2813,"EPHEMERIS_TYPE":0,"CLASSIFICATION_TYPE":"U","NORAD_CAT_ID":42989,"ELEMENT_SET_NO":999,"REV_AT_EPOCH":41146,"BSTAR":3.1071e-5,"MEAN_MOTION_DOT":9.58e-6,"MEAN_MOTION_DDOT":0},{"OBJECT_NAME":"SKYSAT-C8","OBJECT_ID":"2017-068D","EPOCH":"2025-03-09T22:27:28.629792","MEAN_MOTION":15.30066652,"ECCENTRICITY":0.0001621,"INCLINATION":97.3914,"RA_OF_ASC_NODE":198.8521,"ARG_OF_PERICENTER":165.3049,"MEAN_ANOMALY":194.8239,"EPHEMERIS_TYPE":0,"CLASSIFICATION_TYPE":"U","NORAD_CAT_ID":42990,"ELEMENT_SET_NO":999,"REV_AT_EPOCH":41118,"BSTAR":0.00065094,"MEAN_MOTION_DOT":0.00018893,"MEAN_MOTION_DDOT":0},{"OBJECT_NAME":"SKYSAT-C7","OBJECT_ID":"2017-068E","EPOCH":"2025-03-09T21:40:02.744256","MEAN_MOTION":15.31395183,"ECCENTRICITY":0.0003057,"INCLINATION":97.3916,"RA_OF_ASC_NODE":199.8257,"ARG_OF_PERICENTER":81.9476,"MEAN_ANOMALY":278.2112,"EPHEMERIS_TYPE":0,"CLASSIFICATION_TYPE":"U","NORAD_CAT_ID":42991,"ELEMENT_SET_NO":999,"REV_AT_EPOCH":41124,"BSTAR":0.00069575,"MEAN_MOTION_DOT":0.00021055,"MEAN_MOTION_DDOT":0},{"OBJECT_NAME":"SKYSAT-C6","OBJECT_ID":"2017-068F","EPOCH":"2025-03-09T21:13:22.875456","MEAN_MOTION":15.30663483,"ECCENTRICITY":0.0005749,"INCLINATION":97.3951,"RA_OF_ASC_NODE":200.7237,"ARG_OF_PERICENTER":38.0296,"MEAN_ANOMALY":322.135,"EPHEMERIS_TYPE":0,"CLASSIFICATION_TYPE":"U","NORAD_CAT_ID":42992,"ELEMENT_SET_NO":999,"REV_AT_EPOCH":41126,"BSTAR":0.00066362,"MEAN_MOTION_DOT":0.00019632,"MEAN_MOTION_DDOT":0},{"OBJECT_NAME":"SKYSAT-C12","OBJECT_ID":"2018-099AR","EPOCH":"2025-03-09T16:37:11.946432","MEAN_MOTION":15.34176528,"ECCENTRICITY":0.0007253,"INCLINATION":96.9815,"RA_OF_ASC_NODE":109.2722,"ARG_OF_PERICENTER":59.9736,"MEAN_ANOMALY":300.2226,"EPHEMERIS_TYPE":0,"CLASSIFICATION_TYPE":"U","NORAD_CAT_ID":43797,"ELEMENT_SET_NO":999,"REV_AT_EPOCH":35032,"BSTAR":0.00049675,"MEAN_MOTION_DOT":0.00016387,"MEAN_MOTION_DDOT":0},{"OBJECT_NAME":"SKYSAT-C13","OBJECT_ID":"2018-099AW","EPOCH":"2025-03-09T21:18:24.193728","MEAN_MOTION":15.45335303,"ECCENTRICITY":0.0009419,"INCLINATION":97.0045,"RA_OF_ASC_NODE":119.2235,"ARG_OF_PERICENTER":149.8393,"MEAN_ANOMALY":210.3401,"EPHEMERIS_TYPE":0,"CLASSIFICATION_TYPE":"U","NORAD_CAT_ID":43802,"ELEMENT_SET_NO":999,"REV_AT_EPOCH":35038,"BSTAR":0.00066089,"MEAN_MOTION_DOT":0.00031564,"MEAN_MOTION_DDOT":0},{"OBJECT_NAME":"FLOCK 4Y-24","OBJECT_ID":"2023-001M","EPOCH":"2025-03-09T18:05:13.492896","MEAN_MOTION":15.49177064,"ECCENTRICITY":0.0005429,"INCLINATION":97.3818,"RA_OF_ASC_NODE":138.8166,"ARG_OF_PERICENTER":287.3874,"MEAN_ANOMALY":72.6783,"EPHEMERIS_TYPE":0,"CLASSIFICATION_TYPE":"U","NORAD_CAT_ID":55020,"ELEMENT_SET_NO":999,"REV_AT_EPOCH":12158,"BSTAR":0.0010153,"MEAN_MOTION_DOT":0.00055523,"MEAN_MOTION_DDOT":0},{"OBJECT_NAME":"FLOCK 4Y-32","OBJECT_ID":"2023-001N","EPOCH":"2025-03-09T16:41:35.320416","MEAN_MOTION":15.52224934,"ECCENTRICITY":0.0006164,"INCLINATION":97.3758,"RA_OF_ASC_NODE":139.1838,"ARG_OF_PERICENTER":287.437,"MEAN_ANOMALY":72.6208,"EPHEMERIS_TYPE":0,"CLASSIFICATION_TYPE":"U","NORAD_CAT_ID":55021,"ELEMENT_SET_NO":999,"REV_AT_EPOCH":12161,"BSTAR":0.0011472,"MEAN_MOTION_DOT":0.00070031,"MEAN_MOTION_DDOT":0}]
