SKYSAT-A                
1 39418U 13066C   25068.74609735  .00006706  00000+0  42494-3 0  9997
2 39418  97.4483 127.2048 0024916 114.7192 245.6634 15.09005615618347
SKYSAT-B                
1 40072U 14037D   25068.78532716  .00002843  00000+0  33175-3 0  9996
2 40072  98.3372 358.6323 0005767 359.3487   0.7718 14.86042044576948
SKYSAT-C1               
1 41601U 16040C   25068.69411375  .00017321  00000+0  59389-3 0  9990
2 41601  97.0210 121.5224 0003497 122.6087 237.5493 15.30228761486757
SKYSAT-C4               
1 41771U 16058B   25068.70026711  .00020913  00000+0  62702-3 0  9999
2 41771  96.9709 108.5007 0001827  87.8861 272.2592 15.34499096473945
SKYSAT-C5               
1 41772U 16058C   25068.73196175  .00022267  00000+0  61638-3 0  9996
2 41772  97.1157 122.4226 0005497  41.5149 318.6512 15.36983241472484
SKYSAT-C2               
1 41773U 16058D   25068.67450083  .00017128  00000+0  56859-3 0  9990
2 41773  96.9753 105.9889 0002237 108.1660 251.9826 15.31281637473744
SKYSAT-C3               
1 41774U 16058E   25068.66704031  .00021035  00000+0  60209-3 0  9991
2 41774  96.9688 116.6482 0003280   5.6792 354.4489 15.35955646474484
SKYSAT-C11              
1 42987U 17068A   25068.93172486  .00025768  00000+0  71119-3 0  9992
2 42987  97.3779 202.8343 0007074 105.3115 254.8912 15.37041341411523
SKYSAT-C10              
1 42988U 17068B   25068.93136060  .00021645  00000+0  68470-3 0  9997
2 42988  97.3892 199.8670 0006417  10.7191 349.4187 15.32777148411274
SKYSAT-C9               
1 42989U 17068C   25068.84462172  .00000958  00000+0  31071-4 0  9996
2 42989  97.3766 198.1898 0005494  42.8857 317.2813 15.34469953411462
SKYSAT-C8               
1 42990U 17068D   25068.93574803  .00018893  00000+0  65094-3 0  9991
2 42990  97.3914 198.8521 0001621 165.3049 194.8239 15.30066652411186
SKYSAT-C7               
1 42991U 17068E   25068.90280954  .00021055  00000+0  69575-3 0  9992
2 42991  97.3916 199.8257 0003057  81.9476 278.2112 15.31395183411247
SKYSAT-C6               
1 42992U 17068F   25068.88429254  .00019632  00000+0  66362-3 0  9997
2 42992  97.3951 200.7237 0005749  38.0296 322.1350 15.30663483411265
SKYSAT-C12              
1 43797U 18099AR  25068.69249938  .00016387  00000+0  49675-3 0  9996
2 43797  96.9815 109.2722 0007253  59.9736 300.2226 15.34176528350329
SKYSAT-C13              
1 43802U 18099AW  25068.88778002  .00031564  00000+0  66089-3 0  9995
2 43802  97.0045 119.2235 0009419 149.8393 210.3401 15.45335303350389
FLOCK 4Y-24             
1 55020U 23001M   25068.75362839  .00055523  00000+0  10153-2 0  9993
2 55020  97.3818 138.8166 0005429 287.3874  72.6783 15.49177064121586
FLOCK 4Y-32             
1 55021U 23001N   25068.69554769  .00070031  00000+0  11472-2 0  9998
2 55021  97.3758 139.1838 0006164 287.4370  72.6208 15.52224934121618
